<?xml version="1.0" encoding="UTF-8"?>
<gpx version="1.1" creator="trail-maps from OpenStreetMap (ODbL) route relation and waypoints; elevation Copernicus GLO-30" xmlns="http://www.topografix.com/GPX/1/1">
  <metadata><name>Thorsborne Trail</name></metadata>
  <wpt lat="-18.356325" lon="146.312823"><ele>7.1</ele><name>Banksia Bay campsite</name><type>campsite</type></wpt>
  <wpt lat="-18.402859" lon="146.325107"><ele>13.1</ele><name>Zoe Bay campsite</name><type>campsite</type></wpt>
  <wpt lat="-18.484914" lon="146.325253"><ele>1.3</ele><name>George Point campsite</name><type>campsite</type></wpt>
  <wpt lat="-18.349190" lon="146.300780"><ele>5.2</ele><name>Little Ramsay Bay campsite</name><type>campsite</type></wpt>
  <wpt lat="-18.441308" lon="146.324645"><ele>24.1</ele><name>Mulligan Falls campsite</name><type>campsite</type></wpt>
  <wpt lat="-18.331499" lon="146.288454"><ele>10.1</ele><name>Nina Bay</name><type>campsite</type></wpt>
  <wpt lat="-18.423737" lon="146.322520"><ele>229.8</ele><name>Thorsborne Trail High point</name><type>poi</type></wpt>
  <wpt lat="-18.408980" lon="146.322030"><ele>56.3</ele><name>Zoe Falls</name><type>poi</type></wpt>
  <trk><name>Main route</name><trkseg>
    <trkpt lat="-18.311145" lon="146.272026"><ele>3.1</ele></trkpt>
    <trkpt lat="-18.311146" lon="146.272034"><ele>3.1</ele></trkpt>
    <trkpt lat="-18.311145" lon="146.272123"><ele>3.1</ele></trkpt>
    <trkpt lat="-18.311267" lon="146.272251"><ele>3.0</ele></trkpt>
    <trkpt lat="-18.311379" lon="146.272272"><ele>3.0</ele></trkpt>
    <trkpt lat="-18.311470" lon="146.272588"><ele>3.0</ele></trkpt>
    <trkpt lat="-18.311430" lon="146.272710"><ele>3.1</ele></trkpt>
    <trkpt lat="-18.311445" lon="146.273096"><ele>3.0</ele></trkpt>
    <trkpt lat="-18.311500" lon="146.273334"><ele>3.1</ele></trkpt>
    <trkpt lat="-18.311666" lon="146.273574"><ele>3.2</ele></trkpt>
    <trkpt lat="-18.311826" lon="146.273704"><ele>3.0</ele></trkpt>
    <trkpt lat="-18.311982" lon="146.273720"><ele>2.6</ele></trkpt>
    <trkpt lat="-18.312103" lon="146.273910"><ele>2.1</ele></trkpt>
    <trkpt lat="-18.312119" lon="146.274103"><ele>1.7</ele></trkpt>
    <trkpt lat="-18.312128" lon="146.274214"><ele>1.4</ele></trkpt>
    <trkpt lat="-18.312277" lon="146.274306"><ele>1.0</ele></trkpt>
    <trkpt lat="-18.313376" lon="146.274354"><ele>0.0</ele></trkpt>
    <trkpt lat="-18.313956" lon="146.274373"><ele>0.0</ele></trkpt>
    <trkpt lat="-18.314445" lon="146.274442"><ele>0.0</ele></trkpt>
    <trkpt lat="-18.314968" lon="146.274517"><ele>0.0</ele></trkpt>
    <trkpt lat="-18.315559" lon="146.274605"><ele>0.1</ele></trkpt>
    <trkpt lat="-18.315987" lon="146.274675"><ele>0.1</ele></trkpt>
    <trkpt lat="-18.316358" lon="146.274746"><ele>0.1</ele></trkpt>
    <trkpt lat="-18.316686" lon="146.274802"><ele>0.2</ele></trkpt>
    <trkpt lat="-18.317001" lon="146.274877"><ele>0.3</ele></trkpt>
    <trkpt lat="-18.317431" lon="146.274996"><ele>0.3</ele></trkpt>
    <trkpt lat="-18.317764" lon="146.275095"><ele>0.2</ele></trkpt>
    <trkpt lat="-18.318046" lon="146.275200"><ele>0.1</ele></trkpt>
    <trkpt lat="-18.318493" lon="146.275373"><ele>0.8</ele></trkpt>
    <trkpt lat="-18.319149" lon="146.275601"><ele>9.2</ele></trkpt>
    <trkpt lat="-18.319579" lon="146.275481"><ele>19.5</ele></trkpt>
    <trkpt lat="-18.319848" lon="146.275342"><ele>27.0</ele></trkpt>
    <trkpt lat="-18.320690" lon="146.275300"><ele>38.7</ele></trkpt>
    <trkpt lat="-18.321254" lon="146.275341"><ele>36.5</ele></trkpt>
    <trkpt lat="-18.321481" lon="146.275579"><ele>33.4</ele></trkpt>
    <trkpt lat="-18.321775" lon="146.275566"><ele>31.0</ele></trkpt>
    <trkpt lat="-18.322011" lon="146.275402"><ele>29.3</ele></trkpt>
    <trkpt lat="-18.322407" lon="146.275269"><ele>28.4</ele></trkpt>
    <trkpt lat="-18.323118" lon="146.275259"><ele>30.6</ele></trkpt>
    <trkpt lat="-18.323429" lon="146.275145"><ele>32.1</ele></trkpt>
    <trkpt lat="-18.323846" lon="146.275234"><ele>33.0</ele></trkpt>
    <trkpt lat="-18.324053" lon="146.275455"><ele>32.7</ele></trkpt>
    <trkpt lat="-18.324013" lon="146.275905"><ele>31.1</ele></trkpt>
    <trkpt lat="-18.323853" lon="146.276445"><ele>27.6</ele></trkpt>
    <trkpt lat="-18.323672" lon="146.276812"><ele>24.9</ele></trkpt>
    <trkpt lat="-18.323647" lon="146.276863"><ele>24.5</ele></trkpt>
    <trkpt lat="-18.323451" lon="146.276946"><ele>22.7</ele></trkpt>
    <trkpt lat="-18.323244" lon="146.276942"><ele>20.8</ele></trkpt>
    <trkpt lat="-18.323047" lon="146.276978"><ele>19.1</ele></trkpt>
    <trkpt lat="-18.322909" lon="146.277076"><ele>17.1</ele></trkpt>
    <trkpt lat="-18.322875" lon="146.277331"><ele>14.1</ele></trkpt>
    <trkpt lat="-18.322700" lon="146.277603"><ele>12.0</ele></trkpt>
    <trkpt lat="-18.322696" lon="146.277820"><ele>12.3</ele></trkpt>
    <trkpt lat="-18.322769" lon="146.277969"><ele>13.1</ele></trkpt>
    <trkpt lat="-18.323255" lon="146.277841"><ele>20.2</ele></trkpt>
    <trkpt lat="-18.323742" lon="146.277541"><ele>31.2</ele></trkpt>
    <trkpt lat="-18.324468" lon="146.277611"><ele>39.2</ele></trkpt>
    <trkpt lat="-18.325117" lon="146.277698"><ele>43.0</ele></trkpt>
    <trkpt lat="-18.325254" lon="146.278262"><ele>47.0</ele></trkpt>
    <trkpt lat="-18.325499" lon="146.278684"><ele>52.9</ele></trkpt>
    <trkpt lat="-18.325582" lon="146.278964"><ele>57.0</ele></trkpt>
    <trkpt lat="-18.325755" lon="146.279087"><ele>60.6</ele></trkpt>
    <trkpt lat="-18.325847" lon="146.279393"><ele>66.0</ele></trkpt>
    <trkpt lat="-18.326051" lon="146.279566"><ele>70.3</ele></trkpt>
    <trkpt lat="-18.326072" lon="146.279678"><ele>71.8</ele></trkpt>
    <trkpt lat="-18.326134" lon="146.279814"><ele>73.7</ele></trkpt>
    <trkpt lat="-18.326110" lon="146.280002"><ele>76.0</ele></trkpt>
    <trkpt lat="-18.326210" lon="146.280226"><ele>78.6</ele></trkpt>
    <trkpt lat="-18.326108" lon="146.280484"><ele>80.4</ele></trkpt>
    <trkpt lat="-18.326211" lon="146.280783"><ele>80.3</ele></trkpt>
    <trkpt lat="-18.326433" lon="146.280884"><ele>78.7</ele></trkpt>
    <trkpt lat="-18.326527" lon="146.281111"><ele>76.1</ele></trkpt>
    <trkpt lat="-18.326862" lon="146.281490"><ele>68.1</ele></trkpt>
    <trkpt lat="-18.327437" lon="146.281597"><ele>59.5</ele></trkpt>
    <trkpt lat="-18.327551" lon="146.281736"><ele>57.4</ele></trkpt>
    <trkpt lat="-18.327497" lon="146.281931"><ele>55.2</ele></trkpt>
    <trkpt lat="-18.328252" lon="146.283148"><ele>37.6</ele></trkpt>
    <trkpt lat="-18.328467" lon="146.283142"><ele>35.2</ele></trkpt>
    <trkpt lat="-18.328545" lon="146.283527"><ele>31.3</ele></trkpt>
    <trkpt lat="-18.328748" lon="146.283716"><ele>28.6</ele></trkpt>
    <trkpt lat="-18.328926" lon="146.283660"><ele>26.6</ele></trkpt>
    <trkpt lat="-18.329175" lon="146.283873"><ele>23.1</ele></trkpt>
    <trkpt lat="-18.329213" lon="146.284105"><ele>20.6</ele></trkpt>
    <trkpt lat="-18.329515" lon="146.284266"><ele>16.8</ele></trkpt>
    <trkpt lat="-18.329757" lon="146.284743"><ele>10.3</ele></trkpt>
    <trkpt lat="-18.330693" lon="146.285944"><ele>9.7</ele></trkpt>
    <trkpt lat="-18.331204" lon="146.286145"><ele>7.9</ele></trkpt>
    <trkpt lat="-18.331044" lon="146.286576"><ele>7.6</ele></trkpt>
    <trkpt lat="-18.331512" lon="146.286859"><ele>9.3</ele></trkpt>
    <trkpt lat="-18.331483" lon="146.288454"><ele>7.9</ele></trkpt>
    <trkpt lat="-18.331547" lon="146.288744"><ele>5.4</ele></trkpt>
    <trkpt lat="-18.331951" lon="146.289203"><ele>0.7</ele></trkpt>
    <trkpt lat="-18.332607" lon="146.289209"><ele>0.0</ele></trkpt>
    <trkpt lat="-18.333515" lon="146.289274"><ele>0.0</ele></trkpt>
    <trkpt lat="-18.334073" lon="146.289407"><ele>0.1</ele></trkpt>
    <trkpt lat="-18.334478" lon="146.289558"><ele>1.0</ele></trkpt>
    <trkpt lat="-18.334915" lon="146.289665"><ele>2.9</ele></trkpt>
    <trkpt lat="-18.335198" lon="146.289865"><ele>4.4</ele></trkpt>
    <trkpt lat="-18.335440" lon="146.290214"><ele>5.1</ele></trkpt>
    <trkpt lat="-18.335570" lon="146.290545"><ele>5.1</ele></trkpt>
    <trkpt lat="-18.335618" lon="146.290908"><ele>5.0</ele></trkpt>
    <trkpt lat="-18.336016" lon="146.291559"><ele>7.5</ele></trkpt>
    <trkpt lat="-18.336365" lon="146.291874"><ele>8.1</ele></trkpt>
    <trkpt lat="-18.336738" lon="146.291751"><ele>7.1</ele></trkpt>
    <trkpt lat="-18.337259" lon="146.291956"><ele>4.9</ele></trkpt>
    <trkpt lat="-18.337556" lon="146.292261"><ele>3.5</ele></trkpt>
    <trkpt lat="-18.338218" lon="146.292835"><ele>3.4</ele></trkpt>
    <trkpt lat="-18.338461" lon="146.293344"><ele>6.2</ele></trkpt>
    <trkpt lat="-18.338412" lon="146.293703"><ele>10.5</ele></trkpt>
    <trkpt lat="-18.338651" lon="146.293764"><ele>14.8</ele></trkpt>
    <trkpt lat="-18.339114" lon="146.293882"><ele>25.2</ele></trkpt>
    <trkpt lat="-18.339769" lon="146.294326"><ele>40.8</ele></trkpt>
    <trkpt lat="-18.341715" lon="146.296090"><ele>61.6</ele></trkpt>
    <trkpt lat="-18.343474" lon="146.297420"><ele>34.8</ele></trkpt>
    <trkpt lat="-18.343969" lon="146.297381"><ele>29.7</ele></trkpt>
    <trkpt lat="-18.344432" lon="146.297585"><ele>24.7</ele></trkpt>
    <trkpt lat="-18.344802" lon="146.298081"><ele>20.4</ele></trkpt>
    <trkpt lat="-18.345083" lon="146.298455"><ele>18.9</ele></trkpt>
    <trkpt lat="-18.345934" lon="146.299125"><ele>16.2</ele></trkpt>
    <trkpt lat="-18.346331" lon="146.299995"><ele>8.8</ele></trkpt>
    <trkpt lat="-18.346518" lon="146.300261"><ele>5.8</ele></trkpt>
    <trkpt lat="-18.346820" lon="146.300268"><ele>3.3</ele></trkpt>
    <trkpt lat="-18.347378" lon="146.300346"><ele>1.5</ele></trkpt>
    <trkpt lat="-18.347915" lon="146.300510"><ele>1.0</ele></trkpt>
    <trkpt lat="-18.348110" lon="146.300559"><ele>0.9</ele></trkpt>
    <trkpt lat="-18.348385" lon="146.300594"><ele>0.6</ele></trkpt>
    <trkpt lat="-18.349262" lon="146.300927"><ele>2.3</ele></trkpt>
    <trkpt lat="-18.351674" lon="146.302144"><ele>3.2</ele></trkpt>
    <trkpt lat="-18.353897" lon="146.303639"><ele>0.8</ele></trkpt>
    <trkpt lat="-18.355305" lon="146.305019"><ele>2.6</ele></trkpt>
    <trkpt lat="-18.355437" lon="146.305218"><ele>4.0</ele></trkpt>
    <trkpt lat="-18.355643" lon="146.305780"><ele>5.9</ele></trkpt>
    <trkpt lat="-18.355893" lon="146.306313"><ele>6.0</ele></trkpt>
    <trkpt lat="-18.355994" lon="146.306568"><ele>5.9</ele></trkpt>
    <trkpt lat="-18.355983" lon="146.306740"><ele>6.3</ele></trkpt>
    <trkpt lat="-18.355677" lon="146.307225"><ele>9.1</ele></trkpt>
    <trkpt lat="-18.355753" lon="146.307693"><ele>8.8</ele></trkpt>
    <trkpt lat="-18.355933" lon="146.308024"><ele>7.5</ele></trkpt>
    <trkpt lat="-18.356217" lon="146.308173"><ele>5.4</ele></trkpt>
    <trkpt lat="-18.356334" lon="146.308446"><ele>4.3</ele></trkpt>
    <trkpt lat="-18.356208" lon="146.309318"><ele>4.4</ele></trkpt>
    <trkpt lat="-18.356239" lon="146.309607"><ele>7.7</ele></trkpt>
    <trkpt lat="-18.356262" lon="146.309822"><ele>10.6</ele></trkpt>
    <trkpt lat="-18.356472" lon="146.309974"><ele>14.3</ele></trkpt>
    <trkpt lat="-18.357248" lon="146.310063"><ele>27.0</ele></trkpt>
    <trkpt lat="-18.357847" lon="146.311256"><ele>53.0</ele></trkpt>
    <trkpt lat="-18.358062" lon="146.311404"><ele>55.0</ele></trkpt>
    <trkpt lat="-18.358963" lon="146.311354"><ele>54.9</ele></trkpt>
    <trkpt lat="-18.359199" lon="146.311531"><ele>52.8</ele></trkpt>
    <trkpt lat="-18.359381" lon="146.311819"><ele>50.7</ele></trkpt>
    <trkpt lat="-18.359590" lon="146.311811"><ele>48.9</ele></trkpt>
    <trkpt lat="-18.359678" lon="146.311672"><ele>47.3</ele></trkpt>
    <trkpt lat="-18.360052" lon="146.312002"><ele>45.4</ele></trkpt>
    <trkpt lat="-18.360595" lon="146.312137"><ele>42.3</ele></trkpt>
    <trkpt lat="-18.360818" lon="146.312488"><ele>41.1</ele></trkpt>
    <trkpt lat="-18.360807" lon="146.312687"><ele>40.8</ele></trkpt>
    <trkpt lat="-18.360650" lon="146.312798"><ele>40.9</ele></trkpt>
    <trkpt lat="-18.360613" lon="146.313104"><ele>42.4</ele></trkpt>
    <trkpt lat="-18.360920" lon="146.313443"><ele>47.1</ele></trkpt>
    <trkpt lat="-18.364252" lon="146.314079"><ele>86.0</ele></trkpt>
    <trkpt lat="-18.364818" lon="146.314200"><ele>91.2</ele></trkpt>
    <trkpt lat="-18.365147" lon="146.314279"><ele>91.2</ele></trkpt>
    <trkpt lat="-18.365558" lon="146.314308"><ele>87.6</ele></trkpt>
    <trkpt lat="-18.365896" lon="146.314419"><ele>82.0</ele></trkpt>
    <trkpt lat="-18.366238" lon="146.314539"><ele>75.8</ele></trkpt>
    <trkpt lat="-18.366461" lon="146.314491"><ele>71.6</ele></trkpt>
    <trkpt lat="-18.366784" lon="146.314523"><ele>65.7</ele></trkpt>
    <trkpt lat="-18.367137" lon="146.314844"><ele>57.1</ele></trkpt>
    <trkpt lat="-18.367407" lon="146.314844"><ele>52.2</ele></trkpt>
    <trkpt lat="-18.367584" lon="146.314844"><ele>49.3</ele></trkpt>
    <trkpt lat="-18.367669" lon="146.314832"><ele>48.1</ele></trkpt>
    <trkpt lat="-18.367813" lon="146.314810"><ele>46.2</ele></trkpt>
    <trkpt lat="-18.368181" lon="146.314755"><ele>41.5</ele></trkpt>
    <trkpt lat="-18.368519" lon="146.314937"><ele>37.4</ele></trkpt>
    <trkpt lat="-18.369265" lon="146.315383"><ele>29.3</ele></trkpt>
    <trkpt lat="-18.370288" lon="146.315506"><ele>21.3</ele></trkpt>
    <trkpt lat="-18.370754" lon="146.315804"><ele>18.3</ele></trkpt>
    <trkpt lat="-18.371150" lon="146.316199"><ele>16.7</ele></trkpt>
    <trkpt lat="-18.371308" lon="146.316216"><ele>16.5</ele></trkpt>
    <trkpt lat="-18.371571" lon="146.315777"><ele>16.7</ele></trkpt>
    <trkpt lat="-18.371896" lon="146.315582"><ele>17.6</ele></trkpt>
    <trkpt lat="-18.372494" lon="146.314475"><ele>20.2</ele></trkpt>
    <trkpt lat="-18.372918" lon="146.314090"><ele>20.7</ele></trkpt>
    <trkpt lat="-18.374017" lon="146.313850"><ele>19.0</ele></trkpt>
    <trkpt lat="-18.374540" lon="146.313736"><ele>17.1</ele></trkpt>
    <trkpt lat="-18.374789" lon="146.313828"><ele>16.6</ele></trkpt>
    <trkpt lat="-18.375552" lon="146.313566"><ele>15.0</ele></trkpt>
    <trkpt lat="-18.376440" lon="146.313120"><ele>9.5</ele></trkpt>
    <trkpt lat="-18.376630" lon="146.313228"><ele>7.9</ele></trkpt>
    <trkpt lat="-18.377446" lon="146.312173"><ele>5.6</ele></trkpt>
    <trkpt lat="-18.377183" lon="146.311385"><ele>12.7</ele></trkpt>
    <trkpt lat="-18.376829" lon="146.311015"><ele>19.7</ele></trkpt>
    <trkpt lat="-18.376476" lon="146.310399"><ele>25.5</ele></trkpt>
    <trkpt lat="-18.376903" lon="146.308761"><ele>21.5</ele></trkpt>
    <trkpt lat="-18.377268" lon="146.308176"><ele>19.3</ele></trkpt>
    <trkpt lat="-18.377108" lon="146.307375"><ele>18.7</ele></trkpt>
    <trkpt lat="-18.377488" lon="146.306466"><ele>19.7</ele></trkpt>
    <trkpt lat="-18.377298" lon="146.306189"><ele>21.1</ele></trkpt>
    <trkpt lat="-18.377426" lon="146.305773"><ele>22.7</ele></trkpt>
    <trkpt lat="-18.377736" lon="146.305522"><ele>23.6</ele></trkpt>
    <trkpt lat="-18.378045" lon="146.304741"><ele>18.9</ele></trkpt>
    <trkpt lat="-18.379054" lon="146.303605"><ele>6.0</ele></trkpt>
    <trkpt lat="-18.379031" lon="146.303438"><ele>6.2</ele></trkpt>
    <trkpt lat="-18.379016" lon="146.303346"><ele>6.4</ele></trkpt>
    <trkpt lat="-18.379019" lon="146.303162"><ele>6.7</ele></trkpt>
    <trkpt lat="-18.379197" lon="146.302770"><ele>8.3</ele></trkpt>
    <trkpt lat="-18.379827" lon="146.303020"><ele>10.3</ele></trkpt>
    <trkpt lat="-18.380619" lon="146.303614"><ele>10.1</ele></trkpt>
    <trkpt lat="-18.381831" lon="146.303369"><ele>10.8</ele></trkpt>
    <trkpt lat="-18.383163" lon="146.303440"><ele>10.0</ele></trkpt>
    <trkpt lat="-18.383312" lon="146.303283"><ele>10.4</ele></trkpt>
    <trkpt lat="-18.383223" lon="146.302857"><ele>10.8</ele></trkpt>
    <trkpt lat="-18.382886" lon="146.302573"><ele>11.0</ele></trkpt>
    <trkpt lat="-18.382949" lon="146.302511"><ele>10.9</ele></trkpt>
    <trkpt lat="-18.383060" lon="146.302400"><ele>10.7</ele></trkpt>
    <trkpt lat="-18.383596" lon="146.302232"><ele>10.0</ele></trkpt>
    <trkpt lat="-18.383774" lon="146.302274"><ele>10.0</ele></trkpt>
    <trkpt lat="-18.384076" lon="146.302344"><ele>10.2</ele></trkpt>
    <trkpt lat="-18.384255" lon="146.302195"><ele>10.4</ele></trkpt>
    <trkpt lat="-18.384158" lon="146.301990"><ele>10.6</ele></trkpt>
    <trkpt lat="-18.384532" lon="146.301564"><ele>10.3</ele></trkpt>
    <trkpt lat="-18.385385" lon="146.301509"><ele>9.1</ele></trkpt>
    <trkpt lat="-18.385325" lon="146.302297"><ele>10.8</ele></trkpt>
    <trkpt lat="-18.385542" lon="146.302660"><ele>13.6</ele></trkpt>
    <trkpt lat="-18.385814" lon="146.302602"><ele>15.5</ele></trkpt>
    <trkpt lat="-18.386290" lon="146.303062"><ele>18.1</ele></trkpt>
    <trkpt lat="-18.386717" lon="146.303432"><ele>18.9</ele></trkpt>
    <trkpt lat="-18.386978" lon="146.304055"><ele>17.6</ele></trkpt>
    <trkpt lat="-18.387330" lon="146.304379"><ele>16.1</ele></trkpt>
    <trkpt lat="-18.387517" lon="146.304363"><ele>15.9</ele></trkpt>
    <trkpt lat="-18.387697" lon="146.304300"><ele>15.8</ele></trkpt>
    <trkpt lat="-18.388086" lon="146.304568"><ele>16.3</ele></trkpt>
    <trkpt lat="-18.388205" lon="146.305041"><ele>16.1</ele></trkpt>
    <trkpt lat="-18.388213" lon="146.305569"><ele>15.7</ele></trkpt>
    <trkpt lat="-18.389078" lon="146.306325"><ele>16.5</ele></trkpt>
    <trkpt lat="-18.389301" lon="146.306748"><ele>15.8</ele></trkpt>
    <trkpt lat="-18.390435" lon="146.307903"><ele>16.6</ele></trkpt>
    <trkpt lat="-18.390412" lon="146.308289"><ele>16.2</ele></trkpt>
    <trkpt lat="-18.391116" lon="146.308888"><ele>15.9</ele></trkpt>
    <trkpt lat="-18.392042" lon="146.309855"><ele>17.9</ele></trkpt>
    <trkpt lat="-18.392393" lon="146.310123"><ele>17.4</ele></trkpt>
    <trkpt lat="-18.392874" lon="146.310749"><ele>16.2</ele></trkpt>
    <trkpt lat="-18.393008" lon="146.311182"><ele>16.0</ele></trkpt>
    <trkpt lat="-18.393713" lon="146.311782"><ele>15.4</ele></trkpt>
    <trkpt lat="-18.393787" lon="146.311845"><ele>15.4</ele></trkpt>
    <trkpt lat="-18.394333" lon="146.311924"><ele>14.6</ele></trkpt>
    <trkpt lat="-18.394378" lon="146.311953"><ele>14.5</ele></trkpt>
    <trkpt lat="-18.394819" lon="146.312239"><ele>13.7</ele></trkpt>
    <trkpt lat="-18.394916" lon="146.312562"><ele>14.1</ele></trkpt>
    <trkpt lat="-18.394900" lon="146.312584"><ele>14.2</ele></trkpt>
    <trkpt lat="-18.394722" lon="146.312830"><ele>14.8</ele></trkpt>
    <trkpt lat="-18.394774" lon="146.313847"><ele>14.3</ele></trkpt>
    <trkpt lat="-18.394961" lon="146.314257"><ele>12.7</ele></trkpt>
    <trkpt lat="-18.394894" lon="146.314754"><ele>11.0</ele></trkpt>
    <trkpt lat="-18.394318" lon="146.315046"><ele>8.6</ele></trkpt>
    <trkpt lat="-18.394205" lon="146.315322"><ele>8.5</ele></trkpt>
    <trkpt lat="-18.394392" lon="146.315747"><ele>9.3</ele></trkpt>
    <trkpt lat="-18.394318" lon="146.316591"><ele>12.1</ele></trkpt>
    <trkpt lat="-18.393854" lon="146.318026"><ele>11.8</ele></trkpt>
    <trkpt lat="-18.393876" lon="146.318333"><ele>12.2</ele></trkpt>
    <trkpt lat="-18.394191" lon="146.319043"><ele>14.4</ele></trkpt>
    <trkpt lat="-18.395799" lon="146.319059"><ele>15.5</ele></trkpt>
    <trkpt lat="-18.396697" lon="146.319555"><ele>13.3</ele></trkpt>
    <trkpt lat="-18.396816" lon="146.319807"><ele>14.2</ele></trkpt>
    <trkpt lat="-18.397153" lon="146.321148"><ele>14.1</ele></trkpt>
    <trkpt lat="-18.396981" lon="146.322015"><ele>13.7</ele></trkpt>
    <trkpt lat="-18.396959" lon="146.322425"><ele>10.4</ele></trkpt>
    <trkpt lat="-18.397070" lon="146.322597"><ele>8.7</ele></trkpt>
    <trkpt lat="-18.397655" lon="146.322629"><ele>4.1</ele></trkpt>
    <trkpt lat="-18.398149" lon="146.322731"><ele>3.2</ele></trkpt>
    <trkpt lat="-18.398551" lon="146.322827"><ele>4.2</ele></trkpt>
    <trkpt lat="-18.399488" lon="146.323133"><ele>6.8</ele></trkpt>
    <trkpt lat="-18.400501" lon="146.324026"><ele>1.9</ele></trkpt>
    <trkpt lat="-18.400922" lon="146.324554"><ele>1.6</ele></trkpt>
    <trkpt lat="-18.401291" lon="146.325015"><ele>2.1</ele></trkpt>
    <trkpt lat="-18.401722" lon="146.325738"><ele>3.4</ele></trkpt>
    <trkpt lat="-18.402129" lon="146.326529"><ele>5.0</ele></trkpt>
    <trkpt lat="-18.402355" lon="146.326288"><ele>6.5</ele></trkpt>
    <trkpt lat="-18.402790" lon="146.325843"><ele>10.6</ele></trkpt>
    <trkpt lat="-18.403276" lon="146.325226"><ele>12.5</ele></trkpt>
    <trkpt lat="-18.403298" lon="146.324442"><ele>12.8</ele></trkpt>
    <trkpt lat="-18.403382" lon="146.323229"><ele>14.4</ele></trkpt>
    <trkpt lat="-18.404290" lon="146.322943"><ele>12.6</ele></trkpt>
    <trkpt lat="-18.405589" lon="146.322085"><ele>11.2</ele></trkpt>
    <trkpt lat="-18.406468" lon="146.322007"><ele>15.6</ele></trkpt>
    <trkpt lat="-18.407132" lon="146.322164"><ele>18.4</ele></trkpt>
    <trkpt lat="-18.407561" lon="146.322490"><ele>20.0</ele></trkpt>
    <trkpt lat="-18.407833" lon="146.322697"><ele>20.8</ele></trkpt>
    <trkpt lat="-18.408179" lon="146.322864"><ele>22.4</ele></trkpt>
    <trkpt lat="-18.408460" lon="146.322657"><ele>25.9</ele></trkpt>
    <trkpt lat="-18.408647" lon="146.322919"><ele>31.4</ele></trkpt>
    <trkpt lat="-18.409030" lon="146.322774"><ele>42.9</ele></trkpt>
    <trkpt lat="-18.409101" lon="146.322402"><ele>56.3</ele></trkpt>
    <trkpt lat="-18.409413" lon="146.322269"><ele>66.5</ele></trkpt>
    <trkpt lat="-18.409706" lon="146.321860"><ele>76.8</ele></trkpt>
    <trkpt lat="-18.409784" lon="146.321752"><ele>78.1</ele></trkpt>
    <trkpt lat="-18.410481" lon="146.321323"><ele>82.5</ele></trkpt>
    <trkpt lat="-18.410510" lon="146.321260"><ele>82.9</ele></trkpt>
    <trkpt lat="-18.410843" lon="146.320523"><ele>86.9</ele></trkpt>
    <trkpt lat="-18.410885" lon="146.320432"><ele>87.6</ele></trkpt>
    <trkpt lat="-18.411491" lon="146.319707"><ele>94.8</ele></trkpt>
    <trkpt lat="-18.411986" lon="146.319458"><ele>97.8</ele></trkpt>
    <trkpt lat="-18.412336" lon="146.319281"><ele>99.7</ele></trkpt>
    <trkpt lat="-18.412643" lon="146.319376"><ele>101.6</ele></trkpt>
    <trkpt lat="-18.412852" lon="146.319265"><ele>103.3</ele></trkpt>
    <trkpt lat="-18.414064" lon="146.319533"><ele>115.5</ele></trkpt>
    <trkpt lat="-18.414168" lon="146.319603"><ele>116.6</ele></trkpt>
    <trkpt lat="-18.414453" lon="146.319794"><ele>118.9</ele></trkpt>
    <trkpt lat="-18.415007" lon="146.320243"><ele>122.2</ele></trkpt>
    <trkpt lat="-18.415596" lon="146.320935"><ele>126.6</ele></trkpt>
    <trkpt lat="-18.416069" lon="146.321489"><ele>130.7</ele></trkpt>
    <trkpt lat="-18.416405" lon="146.321741"><ele>133.9</ele></trkpt>
    <trkpt lat="-18.416645" lon="146.322143"><ele>138.3</ele></trkpt>
    <trkpt lat="-18.417243" lon="146.322269"><ele>143.5</ele></trkpt>
    <trkpt lat="-18.417894" lon="146.322214"><ele>148.6</ele></trkpt>
    <trkpt lat="-18.418425" lon="146.322411"><ele>152.4</ele></trkpt>
    <trkpt lat="-18.419143" lon="146.322474"><ele>158.1</ele></trkpt>
    <trkpt lat="-18.419532" lon="146.322679"><ele>162.5</ele></trkpt>
    <trkpt lat="-18.419839" lon="146.322711"><ele>165.4</ele></trkpt>
    <trkpt lat="-18.420153" lon="146.322671"><ele>168.5</ele></trkpt>
    <trkpt lat="-18.420347" lon="146.322931"><ele>172.0</ele></trkpt>
    <trkpt lat="-18.420448" lon="146.322977"><ele>173.3</ele></trkpt>
    <trkpt lat="-18.420841" lon="146.323152"><ele>178.5</ele></trkpt>
    <trkpt lat="-18.421507" lon="146.323097"><ele>189.5</ele></trkpt>
    <trkpt lat="-18.422195" lon="146.322797"><ele>203.4</ele></trkpt>
    <trkpt lat="-18.422472" lon="146.322561"><ele>209.5</ele></trkpt>
    <trkpt lat="-18.423070" lon="146.322395"><ele>218.6</ele></trkpt>
    <trkpt lat="-18.423384" lon="146.322569"><ele>222.8</ele></trkpt>
    <trkpt lat="-18.423616" lon="146.322466"><ele>224.4</ele></trkpt>
    <trkpt lat="-18.423737" lon="146.322520"><ele>224.9</ele></trkpt>
    <trkpt lat="-18.423811" lon="146.322703"><ele>225.5</ele></trkpt>
    <trkpt lat="-18.423837" lon="146.322845"><ele>225.4</ele></trkpt>
    <trkpt lat="-18.423779" lon="146.322975"><ele>225.1</ele></trkpt>
    <trkpt lat="-18.423877" lon="146.323068"><ele>224.3</ele></trkpt>
    <trkpt lat="-18.424009" lon="146.323509"><ele>221.6</ele></trkpt>
    <trkpt lat="-18.423984" lon="146.323635"><ele>221.2</ele></trkpt>
    <trkpt lat="-18.424005" lon="146.323744"><ele>220.9</ele></trkpt>
    <trkpt lat="-18.424155" lon="146.323956"><ele>220.2</ele></trkpt>
    <trkpt lat="-18.425120" lon="146.324508"><ele>214.5</ele></trkpt>
    <trkpt lat="-18.425172" lon="146.324616"><ele>213.6</ele></trkpt>
    <trkpt lat="-18.426399" lon="146.327134"><ele>180.1</ele></trkpt>
    <trkpt lat="-18.426765" lon="146.327425"><ele>173.2</ele></trkpt>
    <trkpt lat="-18.427132" lon="146.328001"><ele>163.0</ele></trkpt>
    <trkpt lat="-18.427476" lon="146.328111"><ele>157.9</ele></trkpt>
    <trkpt lat="-18.427723" lon="146.328521"><ele>155.6</ele></trkpt>
    <trkpt lat="-18.428097" lon="146.328229"><ele>154.0</ele></trkpt>
    <trkpt lat="-18.428299" lon="146.328513"><ele>154.0</ele></trkpt>
    <trkpt lat="-18.428822" lon="146.328506"><ele>150.8</ele></trkpt>
    <trkpt lat="-18.429024" lon="146.328632"><ele>149.3</ele></trkpt>
    <trkpt lat="-18.429645" lon="146.328403"><ele>149.0</ele></trkpt>
    <trkpt lat="-18.429763" lon="146.328060"><ele>152.7</ele></trkpt>
    <trkpt lat="-18.429824" lon="146.327875"><ele>155.6</ele></trkpt>
    <trkpt lat="-18.430183" lon="146.327969"><ele>162.0</ele></trkpt>
    <trkpt lat="-18.431051" lon="146.328017"><ele>163.9</ele></trkpt>
    <trkpt lat="-18.431702" lon="146.327820"><ele>152.4</ele></trkpt>
    <trkpt lat="-18.431851" lon="146.327985"><ele>148.3</ele></trkpt>
    <trkpt lat="-18.432480" lon="146.327733"><ele>142.3</ele></trkpt>
    <trkpt lat="-18.432854" lon="146.327717"><ele>143.1</ele></trkpt>
    <trkpt lat="-18.433796" lon="146.328174"><ele>136.8</ele></trkpt>
    <trkpt lat="-18.434163" lon="146.328166"><ele>129.5</ele></trkpt>
    <trkpt lat="-18.434492" lon="146.327646"><ele>115.5</ele></trkpt>
    <trkpt lat="-18.434990" lon="146.327560"><ele>102.8</ele></trkpt>
    <trkpt lat="-18.435139" lon="146.327401"><ele>97.5</ele></trkpt>
    <trkpt lat="-18.435401" lon="146.326910"><ele>86.7</ele></trkpt>
    <trkpt lat="-18.435994" lon="146.326808"><ele>78.9</ele></trkpt>
    <trkpt lat="-18.436273" lon="146.326507"><ele>76.4</ele></trkpt>
    <trkpt lat="-18.436315" lon="146.326461"><ele>76.4</ele></trkpt>
    <trkpt lat="-18.435911" lon="146.326264"><ele>77.7</ele></trkpt>
    <trkpt lat="-18.436585" lon="146.325562"><ele>86.6</ele></trkpt>
    <trkpt lat="-18.436869" lon="146.325476"><ele>89.1</ele></trkpt>
    <trkpt lat="-18.437938" lon="146.323615"><ele>107.5</ele></trkpt>
    <trkpt lat="-18.438761" lon="146.323111"><ele>105.6</ele></trkpt>
    <trkpt lat="-18.439315" lon="146.323221"><ele>99.4</ele></trkpt>
    <trkpt lat="-18.439913" lon="146.322882"><ele>90.3</ele></trkpt>
    <trkpt lat="-18.440130" lon="146.322984"><ele>87.3</ele></trkpt>
    <trkpt lat="-18.440309" lon="146.323245"><ele>82.9</ele></trkpt>
    <trkpt lat="-18.440691" lon="146.323103"><ele>75.6</ele></trkpt>
    <trkpt lat="-18.440780" lon="146.322906"><ele>71.2</ele></trkpt>
    <trkpt lat="-18.441012" lon="146.323505"><ele>55.7</ele></trkpt>
    <trkpt lat="-18.440833" lon="146.324167"><ele>39.6</ele></trkpt>
    <trkpt lat="-18.441087" lon="146.324183"><ele>35.2</ele></trkpt>
    <trkpt lat="-18.441416" lon="146.323962"><ele>30.0</ele></trkpt>
    <trkpt lat="-18.441854" lon="146.324123"><ele>25.6</ele></trkpt>
    <trkpt lat="-18.442060" lon="146.324341"><ele>23.4</ele></trkpt>
    <trkpt lat="-18.442436" lon="146.324330"><ele>21.2</ele></trkpt>
    <trkpt lat="-18.442614" lon="146.324309"><ele>20.5</ele></trkpt>
    <trkpt lat="-18.442753" lon="146.324154"><ele>19.7</ele></trkpt>
    <trkpt lat="-18.442972" lon="146.323670"><ele>18.6</ele></trkpt>
    <trkpt lat="-18.443453" lon="146.322330"><ele>16.7</ele></trkpt>
    <trkpt lat="-18.443735" lon="146.321896"><ele>14.4</ele></trkpt>
    <trkpt lat="-18.444034" lon="146.322054"><ele>13.1</ele></trkpt>
    <trkpt lat="-18.444550" lon="146.321778"><ele>11.5</ele></trkpt>
    <trkpt lat="-18.444834" lon="146.321912"><ele>12.3</ele></trkpt>
    <trkpt lat="-18.445141" lon="146.321147"><ele>14.5</ele></trkpt>
    <trkpt lat="-18.445328" lon="146.321029"><ele>14.8</ele></trkpt>
    <trkpt lat="-18.445806" lon="146.321242"><ele>14.6</ele></trkpt>
    <trkpt lat="-18.446047" lon="146.321249"><ele>14.6</ele></trkpt>
    <trkpt lat="-18.446360" lon="146.321274"><ele>14.8</ele></trkpt>
    <trkpt lat="-18.446988" lon="146.321542"><ele>14.3</ele></trkpt>
    <trkpt lat="-18.446883" lon="146.321904"><ele>13.8</ele></trkpt>
    <trkpt lat="-18.447078" lon="146.322086"><ele>13.6</ele></trkpt>
    <trkpt lat="-18.447317" lon="146.321999"><ele>13.7</ele></trkpt>
    <trkpt lat="-18.448170" lon="146.322779"><ele>13.9</ele></trkpt>
    <trkpt lat="-18.448506" lon="146.322574"><ele>13.5</ele></trkpt>
    <trkpt lat="-18.448753" lon="146.322771"><ele>13.5</ele></trkpt>
    <trkpt lat="-18.448581" lon="146.323237"><ele>13.4</ele></trkpt>
    <trkpt lat="-18.448686" lon="146.323789"><ele>12.6</ele></trkpt>
    <trkpt lat="-18.449426" lon="146.324104"><ele>13.6</ele></trkpt>
    <trkpt lat="-18.449471" lon="146.324435"><ele>14.8</ele></trkpt>
    <trkpt lat="-18.448536" lon="146.325263"><ele>14.5</ele></trkpt>
    <trkpt lat="-18.448364" lon="146.326627"><ele>12.4</ele></trkpt>
    <trkpt lat="-18.448596" lon="146.326982"><ele>10.1</ele></trkpt>
    <trkpt lat="-18.448506" lon="146.327226"><ele>8.2</ele></trkpt>
    <trkpt lat="-18.448528" lon="146.327652"><ele>6.3</ele></trkpt>
    <trkpt lat="-18.448698" lon="146.327652"><ele>5.8</ele></trkpt>
    <trkpt lat="-18.448929" lon="146.327625"><ele>5.3</ele></trkpt>
    <trkpt lat="-18.449751" lon="146.327484"><ele>4.2</ele></trkpt>
    <trkpt lat="-18.452886" lon="146.327183"><ele>1.2</ele></trkpt>
    <trkpt lat="-18.456997" lon="146.326926"><ele>5.4</ele></trkpt>
    <trkpt lat="-18.459308" lon="146.326861"><ele>3.4</ele></trkpt>
    <trkpt lat="-18.460478" lon="146.326625"><ele>2.6</ele></trkpt>
    <trkpt lat="-18.460936" lon="146.326336"><ele>1.4</ele></trkpt>
    <trkpt lat="-18.461261" lon="146.325939"><ele>0.6</ele></trkpt>
    <trkpt lat="-18.461659" lon="146.325852"><ele>0.6</ele></trkpt>
    <trkpt lat="-18.461801" lon="146.325821"><ele>0.6</ele></trkpt>
    <trkpt lat="-18.462187" lon="146.326057"><ele>1.0</ele></trkpt>
    <trkpt lat="-18.462411" lon="146.326357"><ele>1.8</ele></trkpt>
    <trkpt lat="-18.463093" lon="146.326894"><ele>2.3</ele></trkpt>
    <trkpt lat="-18.464172" lon="146.327215"><ele>3.8</ele></trkpt>
    <trkpt lat="-18.467042" lon="146.327645"><ele>2.3</ele></trkpt>
    <trkpt lat="-18.470553" lon="146.328267"><ele>1.3</ele></trkpt>
    <trkpt lat="-18.476220" lon="146.329926"><ele>1.2</ele></trkpt>
    <trkpt lat="-18.477489" lon="146.330355"><ele>1.7</ele></trkpt>
    <trkpt lat="-18.478479" lon="146.330616"><ele>0.6</ele></trkpt>
    <trkpt lat="-18.478918" lon="146.330622"><ele>0.7</ele></trkpt>
    <trkpt lat="-18.479197" lon="146.330457"><ele>0.7</ele></trkpt>
    <trkpt lat="-18.479495" lon="146.330132"><ele>0.5</ele></trkpt>
    <trkpt lat="-18.480072" lon="146.329514"><ele>0.4</ele></trkpt>
    <trkpt lat="-18.481604" lon="146.328128"><ele>1.0</ele></trkpt>
    <trkpt lat="-18.482268" lon="146.327628"><ele>1.5</ele></trkpt>
    <trkpt lat="-18.483380" lon="146.326959"><ele>1.5</ele></trkpt>
    <trkpt lat="-18.484059" lon="146.326506"><ele>2.1</ele></trkpt>
    <trkpt lat="-18.484665" lon="146.325722"><ele>1.6</ele></trkpt>
    <trkpt lat="-18.484912" lon="146.325266"><ele>1.1</ele></trkpt>
  </trkseg></trk>
</gpx>
